NORAD_CAT_ID,OBJECT_NAME,OBJECT_TYPE,EPOCH,MEAN_MOTION,ECCENTRICITY,INCLINATION,RA_OF_ASC_NODE,ARG_OF_PERICENTER,MEAN_ANOMALY,BSTAR,MEAN_MOTION_DOT,MEAN_MOTION_DDOT,TLE_LINE0,TLE_LINE1,TLE_LINE2,SEMIMAJOR_AXIS,PERIOD,APOGEE,PERIGEE,DECAYED
49728.0,STARLINK-3240,PAYLOAD,2022-11-25 05:32:50,15.08833369,0.0002883,53.2167,148.1877,43.5754,316.5466,-1.217e-05,-4.82e-06,0.0,0 STARLINK-3240,1 49728U 21115E   22329.23114335 -.00000482  00000-0 -12170-4 0  9991,2 49728  53.2167 148.1877 0002883  43.5754 316.5466 15.08833369 55277,6917.901,95.438,541.76,537.771,0.0
49728.0,STARLINK-3240,PAYLOAD,2022-11-25 11:54:23,15.08835949,0.0002887,53.2169,146.9985,43.1779,316.9439,3.0982e-06,-2.39e-06,0.0,0 STARLINK-3240,1 49728U 21115E   22329.49610237 -.00000239  00000-0  30982-5 0  9992,2 49728  53.2169 146.9985 0002887  43.1779 316.9439 15.08835949 54204,6917.893,95.438,541.755,537.761,0.0
49728.0,STARLINK-3240,PAYLOAD,2022-11-25 18:15:55,15.08836607,0.0002768,53.2159,145.8074,45.0516,315.0701,1.0224e-06,-2.72e-06,0.0,0 STARLINK-3240,1 49728U 21115E   22329.76106213 -.00000272  00000-0  10224-5 0  9990,2 49728  53.2159 145.8074 0002768  45.0516 315.0701 15.08836607 54246,6917.891,95.438,541.6709999999998,537.841,0.0
49728.0,STARLINK-3240,PAYLOAD,2022-11-26 10:09:47,15.08837298,0.0002791,53.2154,142.8335,46.0522,314.07,-2.0645e-05,-6.17e-06,0.0,0 STARLINK-3240,1 49728U 21115E   22330.42346353 -.00000617  00000-0 -20645-4 0  9997,2 49728  53.2154 142.8335 0002791  46.0522 314.0700 15.08837298 55451,6917.889,95.438,541.684,537.823,0.0
49728.0,STARLINK-3240,PAYLOAD,2022-11-26 11:45:10,15.08839134,0.0002798,53.2154,142.5361,46.4121,313.7103,-5.9582000000000025e-06,-3.83e-06,0.0,0 STARLINK-3240,1 49728U 21115E   22330.48970154 -.00000383  00000-0 -59582-5 0  9998,2 49728  53.2154 142.5361 0002798  46.4121 313.7103 15.08839134 54355,6917.8830000000025,95.438,541.684,537.812,0.0
49728.0,STARLINK-3240,PAYLOAD,2022-11-26 18:06:42,15.08838706,0.0002759,53.2156,141.3464,46.7831,313.3391,4.3436e-05,4.03e-06,0.0,0 STARLINK-3240,1 49728U 21115E   22330.75466043  .00000403  00000-0  43436-4 0  9996,2 49728  53.2156 141.3464 0002759  46.7831 313.3391 15.08838706 54399,6917.884,95.438,541.658,537.841,0.0
49728.0,STARLINK-3240,PAYLOAD,2022-11-27 11:35:57,15.08838243,0.0002775,53.216,138.0756,46.6848,313.4375,0.00010617,1.402e-05,0.0,0 STARLINK-3240,1 49728U 21115E   22331.48329889  .00001402  00000-0  10617-3 0  9997,2 49728  53.2160 138.0756 0002775  46.6848 313.4375 15.08838243 54508,6917.886,95.438,541.67,537.831,0.0
49728.0,STARLINK-3240,PAYLOAD,2022-11-27 17:57:29,15.08840655,0.0002787,53.216,136.8861,47.0683,313.0542,0.00011919,1.609e-05,0.0,0 STARLINK-3240,1 49728U 21115E   22331.74825725  .00001609  00000-0  11919-3 0  9991,2 49728  53.2160 136.8861 0002787  47.0683 313.0542 15.08840655 55655,6917.878000000002,95.438,541.6709999999998,537.815,0.0
49728.0,STARLINK-3240,PAYLOAD,2022-11-28 17:48:16,15.08843743,0.0002843,53.2162,132.4254,48.5505,311.5731,6.864100000000001e-05,8.04e-06,0.0,0 STARLINK-3240,1 49728U 21115E   22332.74185629  .00000804  00000-0  68641-4 0  9995,2 49728  53.2162 132.4254 0002843  48.5505 311.5731 15.08843743 54694,6917.869000000002,95.437,541.701,537.7669999999998,0.0
49728.0,STARLINK-3240,PAYLOAD,2022-11-29 09:42:07,15.08841457,0.0002838,53.2161,129.4512,47.3957,312.7274,3.2699e-05,2.32e-06,0.0,0 STARLINK-3240,1 49728U 21115E   22333.40425905  .00000232  00000-0  32699-4 0  9992,2 49728  53.2161 129.4512 0002838  47.3957 312.7274 15.08841457 55908,6917.876,95.437,541.7040000000002,537.778,0.0
49728.0,STARLINK-3240,PAYLOAD,2022-11-29 11:17:31,15.08843246,0.0002778,53.2163,129.1542,48.5923,311.5308,1.1655e-05,-1.03e-06,0.0,0 STARLINK-3240,1 49728U 21115E   22333.47049812 -.00000103  00000-0  11655-4 0  9995,2 49728  53.2163 129.1542 0002778  48.5923 311.5308 15.08843246 54800,6917.87,95.437,541.6569999999998,537.814,0.0
49728.0,STARLINK-3240,PAYLOAD,2022-11-29 17:39:03,15.08846634,0.0002822,53.2164,127.9649,49.0173,311.1063,4.0398e-05,3.55e-06,0.0,0 STARLINK-3240,1 49728U 21115E   22333.73545440  .00000355  00000-0  40398-4 0  9996,2 49728  53.2164 127.9649 0002822  49.0173 311.1063 15.08846634 54840,6917.86,95.437,541.677,537.773,0.0
49728.0,STARLINK-3240,PAYLOAD,2022-11-30 09:32:55,15.0883098,0.0002846,53.2165,124.994,46.7112,313.4117,4.6453e-05,4.51e-06,0.0,0 STARLINK-3240,1 49728U 21115E   22334.39786423  .00000451  00000-0  46453-4 0  9992,2 49728  53.2165 124.9940 0002846  46.7112 313.4117 15.08830980 56052,6917.908,95.438,541.742,537.804,0.0
49728.0,STARLINK-3240,PAYLOAD,2022-11-30 19:05:14,15.08830062,0.0002838,53.2167,123.2086,48.1844,311.9391,2.8039e-05,1.58e-06,0.0,0 STARLINK-3240,1 49728U 21115E   22334.79530916  .00000158  00000-0  28039-4 0  9994,2 49728  53.2167 123.2086 0002838  48.1844 311.9391 15.08830062 55008,6917.911,95.438,541.739,537.812,0.0
49728.0,STARLINK-3240,PAYLOAD,2022-11-30 20:40:37,15.08835092,0.0002824,53.216,122.9096,46.1561,313.9664,5.23e-05,5.44e-06,0.0,0 STARLINK-3240,1 49728U 21115E   22334.86154426  .00000544  00000-0  52300-4 0  9997,2 49728  53.2160 122.9096 0002824  46.1561 313.9664 15.08835092 55011,6917.895,95.438,541.714,537.807,0.0
49728.0,STARLINK-3240,PAYLOAD,2022-12-01 18:56:00,15.08843908,0.0002884,53.2166,118.7467,51.6718,308.4533,0.00011404,1.527e-05,0.0,0 STARLINK-3240,1 49728U 21115E   22335.78889736  .00001527  00000-0  11404-3 0  9999,2 49728  53.2166 118.7467 0002884  51.6718 308.4533 15.08843908 56260,6917.868,95.437,541.729,537.738,0.0
49728.0,STARLINK-3240,PAYLOAD,2022-12-02 10:49:52,15.08839791,0.0002838,53.2167,115.772,50.569,309.5552,8.0882e-05,9.99e-06,0.0,0 STARLINK-3240,1 49728U 21115E   22336.45130078  .00000999  00000-0  80882-4 0  9991,2 49728  53.2167 115.7720 0002838  50.5690 309.5552 15.08839791 56365,6917.880999999999,95.438,541.7090000000002,537.783,0.0
49728.0,STARLINK-3240,PAYLOAD,2022-12-03 02:43:44,15.08835546,0.0002889,53.217,112.7987,50.9538,309.1711,1.9635e-05,2.4e-07,0.0,0 STARLINK-3240,1 49728U 21115E   22337.11370632  .00000024  00000-0  19635-4 0  9994,2 49728  53.2170 112.7987 0002889  50.9538 309.1711 15.08835546 56460,6917.894,95.438,541.758,537.76,0.0
49728.0,STARLINK-3240,PAYLOAD,2022-12-03 15:26:48,15.08843257,0.0002718,53.2173,110.4188,51.817,308.3067,-2.6389e-05,-7.09e-06,0.0,0 STARLINK-3240,1 49728U 21115E   22337.64362190 -.00000709  00000-0 -26389-4 0  9998,2 49728  53.2173 110.4188 0002718  51.8170 308.3067 15.08843257 56546,6917.87,95.437,541.616,537.855,0.0
49728.0,STARLINK-3240,PAYLOAD,2022-12-03 18:37:35,15.08842789,0.000268,53.2178,109.8238,52.0187,308.1047,-3.3688e-05,-8.25e-06,0.0,0 STARLINK-3240,1 49728U 21115E   22337.77610198 -.00000825  00000-0 -33688-4 0  9995,2 49728  53.2178 109.8238 0002680  52.0187 308.1047 15.08842789 55452,6917.871999999999,95.437,541.591,537.883,0.0
49728.0,STARLINK-3240,PAYLOAD,2022-12-04 02:34:30,15.08848573,0.0002612,53.217,108.3383,52.624,307.4989,1.3354e-05,-7.6e-07,0.0,0 STARLINK-3240,1 49728U 21115E   22338.10729544 -.00000076  00000-0  13354-4 0  9994,2 49728  53.2170 108.3383 0002612  52.6240 307.4989 15.08848573 56613,6917.854,95.437,541.526,537.9119999999998,0.0
49728.0,STARLINK-3240,PAYLOAD,2022-12-04 13:42:13,15.08833195,0.0002609,53.2173,106.2564,52.6416,307.4813,-7.2998e-06,-4.05e-06,0.0,0 STARLINK-3240,1 49728U 21115E   22338.57098658 -.00000405  00000-0 -72998-5 0  9997,2 49728  53.2173 106.2564 0002609  52.6416 307.4813 15.08833195 56682,6917.901,95.438,541.571,537.961,0.0
49728.0,STARLINK-3240,PAYLOAD,2022-12-04 20:03:45,15.08834878,0.0002587,53.2173,105.0668,52.4111,307.7115,5.33e-05,5.6e-06,0.0,0 STARLINK-3240,1 49728U 21115E   22338.83594524  .00000560  00000-0  53300-4 0  9994,2 49728  53.2173 105.0668 0002587  52.4111 307.7115 15.08834878 55618,6917.896,95.438,541.5509999999998,537.971,0.0
49728.0,STARLINK-3240,PAYLOAD,2022-12-05 08:46:50,15.0884397,0.0002552,53.217,102.6881,51.6486,308.4735,0.00012793,1.748e-05,0.0,0 STARLINK-3240,1 49728U 21115E   22339.36585757  .00001748  00000-0  12793-3 0  9990,2 49728  53.2170 102.6881 0002552  51.6486 308.4735 15.08843970 56804,6917.868,95.437,541.499,537.9680000000002,0.0
49728.0,STARLINK-3240,PAYLOAD,2022-12-05 15:08:23,15.08837174,0.0002731,53.2172,101.4994,48.6439,311.4788,7.044399999999999e-05,8.33e-06,0.0,0 STARLINK-3240,1 49728U 21115E   22339.63082448  .00000833  00000-0  70444-4 0  9991,2 49728  53.2172 101.4994 0002731  48.6439 311.4788 15.08837174 56846,6917.889,95.438,541.643,537.865,0.0
49728.0,STARLINK-3240,PAYLOAD,2022-12-05 19:54:32,15.0884235,0.0002714,53.2175,100.6072,47.7723,312.3499,6.3761e-05,7.26e-06,0.0,0 STARLINK-3240,1 49728U 21115E   22339.82954167  .00000726  00000-0  63761-4 0  9993,2 49728  53.2175 100.6072 0002714  47.7723 312.3499 15.08842350 55765,6917.873000000001,95.437,541.616,537.861,0.0
49728.0,STARLINK-3240,PAYLOAD,2022-12-06 00:40:41,15.08847973,0.0002705,53.2172,99.7156,47.4477,312.6743,0.00010705,1.416e-05,0.0,0 STARLINK-3240,1 49728U 21115E   22340.02825679  .00001416  00000-0  10705-3 0  9998,2 49728  53.2172  99.7156 0002705  47.4477 312.6743 15.08847973 56904,6917.856,95.437,541.592,537.85,0.0
49728.0,STARLINK-3240,PAYLOAD,2022-12-06 08:37:37,15.08845665,0.0002598,53.2175,98.2288,46.574,313.5468,5.8796e-05,6.48e-06,0.0,0 STARLINK-3240,1 49728U 21115E   22340.35945866  .00000648  00000-0  58796-4 0  9994,2 49728  53.2175  98.2288 0002598  46.5740 313.5468 15.08845665 55842,6917.863,95.437,541.525,537.931,0.0
49728.0,STARLINK-3240,PAYLOAD,2022-12-06 13:23:47,15.08835104,0.0002512,53.2176,97.3366,46.9301,313.1901,0.00012054,1.63e-05,0.0,0 STARLINK-3240,1 49728U 21115E   22340.55818490  .00001630  00000-0  12054-3 0  9996,2 49728  53.2176  97.3366 0002512  46.9301 313.1901 15.08835104 56984,6917.895,95.438,541.498,538.023,0.0
